EYESAT A (AO-27)        
1 22825U 93061C   26168.13972331  .00000083  00000+0  48352-4 0  9996
2 22825  98.6881 235.5533 0009538  99.8912 260.3348 14.30942270706999
ITAMSAT (IO-26)         
1 22826U 93061D   26168.11914999  .00000077  00000+0  45962-4 0  9998
2 22826  98.6828 235.4502 0010073  85.1350 275.0983 14.31369167707309
RADIO ROSTO (RS15)      
1 23439U 94085A   26168.47073733 -.00000052  00000+0 -28183-3 0  9997
2 23439  64.8179 302.7576 0155956   3.8240 356.3838 11.27583456295932
JAS-2 (FO-29)           
1 24278U 96046B   26168.38505289  .00000000  00000+0  32651-4 0  9991
2 24278  98.5239  17.2301 0350906  95.9202 268.2041 13.53274404473195
FORTE                   
1 24920U 97047A   26167.95472965  .00000112  00000+0  68423-4 0  9993
2 24920  69.9539  14.5464 0024626 277.6776  82.1550 14.27945022498655
TECHSAT 1B (GO-32)      
1 25397U 98043D   26168.48584789  .00000035  00000+0  35404-4 0  9993
2 25397  99.0067 161.2520 0001080 161.9506 198.1711 14.24428440451374
ISS (ZARYA)             
1 25544U 98067A   26168.51200966  .00010215  00000+0  19142-3 0  9990
2 25544  51.6331 298.4851 0004697 196.4176 163.6661 15.49281356571802
IMAGE                   
1 26113U 00017A   26162.34581823  .00000011  00000+0  22926-1 0  9995
2 26113  94.2241 315.2958 7436383 288.4674   8.8959  1.68665984161407
CLUSTER II-FM7 (SAMBA)  
1 26410U 00041A   26168.13893488  .00013373  00000+0  00000+0 0  9990
2 26410 149.9159  50.9864 9054007 268.1291 359.6411  0.44868040 20307
CLUSTER II-FM8 (TANGO)  
1 26464U 00045B   26166.18760269  .00011725  00000+0  00000+0 0  9995
2 26464 150.1504  51.7507 9057004 268.7261   2.8044  0.44418308 20307
ODIN                    
1 26702U 01007A   26168.09444793  .00153404  00000+0  98467-3 0  9991
2 26702  97.3826 209.0303 0006702 143.1796 216.9931 15.75772883389382
OMNI-M1                 
1 26857U 01026A   26167.20907279 -.00000001  00000+0  00000+0 0  9995
2 26857  44.8307 245.4893 0014194  53.4474 306.7446  3.92401638205538
PCSAT (NO-44)           
1 26931U 01043C   26168.50854177  .00000074  00000+0  58672-4 0  9991
2 26931  67.0505 243.4407 0006079 264.6457  95.3952 14.31956189290490
PROBA-1                 
1 26958U 01049B   26168.53493074  .00001468  00000+0  97885-4 0  9991
2 26958  97.9594 177.0795 0056454 120.6354 240.0456 15.07495993343672
SAUDISAT 1C (SO-50)     
1 27607U 02058C   26168.49245841  .00000788  00000+0  11042-3 0  9990
2 27607  64.5510 128.0407 0075265 262.4185  96.8368 14.83047547264500
CORIOLIS                
1 27640U 03001A   26168.47904147  .00000070  00000+0  53628-4 0  9996
2 27640  98.7125 175.3594 0013390 207.8782 152.1679 14.19944827214262
CUTE-1 (CO-55)          
1 27844U 03031E   26168.24792029  .00000228  00000+0  11738-3 0  9994
2 27844  98.6736 176.8060 0009542 177.7909 182.3314 14.24335742191686
CUBESAT XI-IV (CO-57)   
1 27848U 03031J   26167.95527529  .00000197  00000+0  10575-3 0  9999
2 27848  98.6766 176.2299 0009009 197.6805 162.4061 14.23620738191347
MOZHAETS 4 (RS22)       
1 27939U 03042A   26168.55763221  .00000531  00000+0  90121-4 0  9998
2 27939  98.3462 352.9265 0009937 268.4720 184.4032 14.73467010215602
SAUDISAT 2              
1 28371U 04025F   26168.50978329  .00000186  00000+0  52562-4 0  9996
2 28371  98.5508 168.5000 0023578 297.2213  62.6582 14.56684071165798
